{
  "norad_id": 50573,
  "name": "TIANHUI 4B",
  "history": [
    {
      "epoch": "2026-03-28T21:31:23.673792Z",
      "apogee_km": 437.11121732641095,
      "perigee_km": 423.1178094958059,
      "latitude_deg": 7.128727796641491e-05,
      "longitude_deg": -175.0315036294574,
      "height_km": 428.5422409406558,
      "semi_major_axis_km": 6808.251513411108,
      "eccentricity": 0.00102768,
      "inclination_deg": 88.9777,
      "raan_deg": 334.1278,
      "arg_perigee_deg": 46.8344,
      "mean_anomaly_deg": 313.3773,
      "mean_motion_rev_day": 15.4543013
    },
    {
      "epoch": "2026-03-29T03:44:22.142112Z",
      "apogee_km": 437.06846716072414,
      "perigee_km": 423.1184029992446,
      "latitude_deg": 6.979964147326311e-05,
      "longitude_deg": 91.4328864285359,
      "height_km": 428.50263881907813,
      "semi_major_axis_km": 6808.230435079984,
      "eccentricity": 0.0010245,
      "inclination_deg": 88.9776,
      "raan_deg": 334.0911,
      "arg_perigee_deg": 46.4556,
      "mean_anomaly_deg": 313.7553,
      "mean_motion_rev_day": 15.45437307
    },
    {
      "epoch": "2026-03-30T04:36:15.359616Z",
      "apogee_km": 436.85290711408106,
      "perigee_km": 423.1889341673559,
      "latitude_deg": 4.686516292354931e-05,
      "longitude_deg": 77.29388673483584,
      "height_km": 428.290076150622,
      "semi_major_axis_km": 6808.157920640719,
      "eccentricity": 0.0010035,
      "inclination_deg": 88.9772,
      "raan_deg": 333.945,
      "arg_perigee_deg": 43.6124,
      "mean_anomaly_deg": 316.5927,
      "mean_motion_rev_day": 15.45461998
    },
    {
      "epoch": "2026-03-30T06:09:29.911680Z",
      "apogee_km": 436.8516322764626,
      "perigee_km": 423.1907904989839,
      "latitude_deg": -2.490219010385214e-05,
      "longitude_deg": 53.910229688559525,
      "height_km": 428.2685048933978,
      "semi_major_axis_km": 6808.158211387723,
      "eccentricity": 0.00100327,
      "inclination_deg": 88.9772,
      "raan_deg": 333.9358,
      "arg_perigee_deg": 43.3308,
      "mean_anomaly_deg": 316.8738,
      "mean_motion_rev_day": 15.45461899
    },
    {
      "epoch": "2026-03-30T15:28:56.981280Z",
      "apogee_km": 436.7573025434349,
      "perigee_km": 423.23158780131234,
      "latitude_deg": -3.98965196246776e-06,
      "longitude_deg": -86.39099020331038,
      "height_km": 428.1745650003481,
      "semi_major_axis_km": 6808.131445172374,
      "eccentricity": 0.00099335,
      "inclination_deg": 88.9775,
      "raan_deg": 333.8803,
      "arg_perigee_deg": 41.8672,
      "mean_anomaly_deg": 318.3345,
      "mean_motion_rev_day": 15.45471013
    },
    {
      "epoch": "2026-03-30T21:41:55.080672Z",
      "apogee_km": 436.77206147987,
      "perigee_km": 423.2108142818861,
      "latitude_deg": 4.461683386772116e-05,
      "longitude_deg": -179.92465758717614,
      "height_km": 428.0931595143571,
      "semi_major_axis_km": 6808.128437880878,
      "eccentricity": 0.00099596,
      "inclination_deg": 88.9774,
      "raan_deg": 333.844,
      "arg_perigee_deg": 41.0329,
      "mean_anomaly_deg": 319.1678,
      "mean_motion_rev_day": 15.45472037
    },
    {
      "epoch": "2026-03-31T21:00:31.961088Z",
      "apogee_km": 436.53900750592766,
      "perigee_km": 423.34086955289604,
      "latitude_deg": -5.047261798400302e-05,
      "longitude_deg": -170.67284406248504,
      "height_km": 427.9825234487249,
      "semi_major_axis_km": 6808.076938529412,
      "eccentricity": 0.0009693,
      "inclination_deg": 88.9775,
      "raan_deg": 333.7068,
      "arg_perigee_deg": 38.3497,
      "mean_anomaly_deg": 321.8449,
      "mean_motion_rev_day": 15.45489573
    },
    {
      "epoch": "2026-04-01T21:52:22.272960Z",
      "apogee_km": 436.3956003626963,
      "perigee_km": 423.37049640612713,
      "latitude_deg": -3.7957315198142004e-05,
      "longitude_deg": 175.1996974677763,
      "height_km": 427.7810368325284,
      "semi_major_axis_km": 6808.020048384411,
      "eccentricity": 0.0009566,
      "inclination_deg": 88.9773,
      "raan_deg": 333.5601,
      "arg_perigee_deg": 35.2112,
      "mean_anomaly_deg": 324.9777,
      "mean_motion_rev_day": 15.45508945
    },
    {
      "epoch": "2026-04-02T21:10:57.127296Z",
      "apogee_km": 436.27382977927937,
      "perigee_km": 423.37274503464323,
      "latitude_deg": 9.22753875754053e-05,
      "longitude_deg": -175.5400205077381,
      "height_km": 427.5524057992902,
      "semi_major_axis_km": 6807.960287406961,
      "eccentricity": 0.0009475,
      "inclination_deg": 88.9767,
      "raan_deg": 333.4229,
      "arg_perigee_deg": 31.6526,
      "mean_anomaly_deg": 328.5302,
      "mean_motion_rev_day": 15.45529295
    },
    {
      "epoch": "2026-04-02T22:44:11.365728Z",
      "apogee_km": 436.2204332378642,
      "perigee_km": 423.40882138848883,
      "latitude_deg": 3.457831886151237e-05,
      "longitude_deg": 161.0778330435503,
      "height_km": 427.5801286924066,
      "semi_major_axis_km": 6807.951627313176,
      "eccentricity": 0.00094093,
      "inclination_deg": 88.9767,
      "raan_deg": 333.4139,
      "arg_perigee_deg": 31.6218,
      "mean_anomaly_deg": 328.5605,
      "mean_motion_rev_day": 15.45532244
    },
    {
      "epoch": "2026-04-03T20:29:30.453216Z",
      "apogee_km": 435.98821703286376,
      "perigee_km": 423.484876476894,
      "latitude_deg": -3.249039570427816e-05,
      "longitude_deg": -166.27365788408832,
      "height_km": 427.4958613878251,
      "semi_major_axis_km": 6807.873546754879,
      "eccentricity": 0.0009183,
      "inclination_deg": 88.9764,
      "raan_deg": 333.2854,
      "arg_perigee_deg": 29.1111,
      "mean_anomaly_deg": 331.0658,
      "mean_motion_rev_day": 15.45558833
    },
    {
      "epoch": "2026-04-04T05:48:55.426752Z",
      "apogee_km": 435.93030773186547,
      "perigee_km": 423.4877437075784,
      "latitude_deg": -6.270505861632213e-05,
      "longitude_deg": 53.43377813725092,
      "height_km": 427.4146393409534,
      "semi_major_axis_km": 6807.846025719722,
      "eccentricity": 0.00091384,
      "inclination_deg": 88.9763,
      "raan_deg": 333.2298,
      "arg_perigee_deg": 27.5436,
      "mean_anomaly_deg": 332.6305,
      "mean_motion_rev_day": 15.45568205
    },
    {
      "epoch": "2026-04-05T14:26:51.505728Z",
      "apogee_km": 435.6554144717011,
      "perigee_km": 423.6081145552671,
      "latitude_deg": 2.220753156506279e-05,
      "longitude_deg": -77.58224319902537,
      "height_km": 427.3032327476819,
      "semi_major_axis_km": 6807.768764513484,
      "eccentricity": 0.00088482,
      "inclination_deg": 88.9752,
      "raan_deg": 333.0376,
      "arg_perigee_deg": 22.8263,
      "mean_anomaly_deg": 337.3388,
      "mean_motion_rev_day": 15.45594516
    },
    {
      "epoch": "2026-04-05T20:39:47.782080Z",
      "apogee_km": 435.60087734624176,
      "perigee_km": 423.65461177248835,
      "latitude_deg": -7.624557152420085e-05,
      "longitude_deg": -171.10799716295327,
      "height_km": 427.32685536795657,
      "semi_major_axis_km": 6807.764744559365,
      "eccentricity": 0.0008774,
      "inclination_deg": 88.9753,
      "raan_deg": 333.0016,
      "arg_perigee_deg": 22.3485,
      "mean_anomaly_deg": 337.8154,
      "mean_motion_rev_day": 15.45595885
    },
    {
      "epoch": "2026-04-06T05:59:11.944320Z",
      "apogee_km": 435.4917668527469,
      "perigee_km": 423.72716403088634,
      "latitude_deg": -3.6023133550895844e-05,
      "longitude_deg": 48.60262913917119,
      "height_km": 427.3465571518395,
      "semi_major_axis_km": 6807.746465441816,
      "eccentricity": 0.00086406,
      "inclination_deg": 88.9751,
      "raan_deg": 332.9458,
      "arg_perigee_deg": 21.1264,
      "mean_anomaly_deg": 339.035,
      "mean_motion_rev_day": 15.4560211
    },
    {
      "epoch": "2026-04-07T14:37:05.497824Z",
      "apogee_km": 435.2848105787907,
      "perigee_km": 423.79481365529864,
      "latitude_deg": -5.40971417292116e-05,
      "longitude_deg": -82.40414426753183,
      "height_km": 427.238597136789,
      "semi_major_axis_km": 6807.676812117044,
      "eccentricity": 0.0008439,
      "inclination_deg": 88.975,
      "raan_deg": 332.7523,
      "arg_perigee_deg": 15.8425,
      "mean_anomaly_deg": 344.3096,
      "mean_motion_rev_day": 15.45625831
    },
    {
      "epoch": "2026-04-07T20:50:01.344768Z",
      "apogee_km": 435.2638969256759,
      "perigee_km": 423.81882806265094,
      "latitude_deg": 6.704058172728826e-06,
      "longitude_deg": -175.9282015953416,
      "height_km": 427.24130176211196,
      "semi_major_axis_km": 6807.678362494163,
      "eccentricity": 0.0008406,
      "inclination_deg": 88.9751,
      "raan_deg": 332.7162,
      "arg_perigee_deg": 15.0662,
      "mean_anomaly_deg": 345.0846,
      "mean_motion_rev_day": 15.45625303
    },
    {
      "epoch": "2026-04-08T15:28:48.203040Z",
      "apogee_km": 435.03227490590416,
      "perigee_km": 423.96210864129444,
      "latitude_deg": 4.736826418459738e-05,
      "longitude_deg": -96.49942441444202,
      "height_km": 427.3176001993871,
      "semi_major_axis_km": 6807.634191773599,
      "eccentricity": 0.00081307,
      "inclination_deg": 88.975,
      "raan_deg": 332.606,
      "arg_perigee_deg": 12.3896,
      "mean_anomaly_deg": 347.7562,
      "mean_motion_rev_day": 15.45640346
    },
    {
      "epoch": "2026-04-09T21:00:11.746080Z",
      "apogee_km": 434.85989883836373,
      "perigee_km": 424.06848942542456,
      "latitude_deg": -4.9560829236098516e-05,
      "longitude_deg": 179.26609921608653,
      "height_km": 427.3549700442357,
      "semi_major_axis_km": 6807.601194131894,
      "eccentricity": 0.0007926,
      "inclination_deg": 88.9753,
      "raan_deg": 332.4321,
      "arg_perigee_deg": 8.4715,
      "mean_anomaly_deg": 351.6676,
      "mean_motion_rev_day": 15.45651584
    }
  ]
}